{
  "type": "FeatureCollection",
  "features": [
    {
      "type": "Feature",
      "properties": {
        "norad_id": 54259,
        "name": "EUTELSAT 10B",
        "group": "eutelsat",
        "lat": -0.040878507241080275,
        "lon": 16.8808347125019,
        "alt_km": 35787.76971550185,
        "timestamp": "2025-12-14T18:52:55.169735+00:00",
        "meta_object_name": "EUTELSAT 10B",
        "meta_object_id": "2022-157A",
        "meta_epoch": "2025-12-13T22:23:38.652000",
        "meta_mean_motion": 1.00270124,
        "meta_eccentricity": 6.005e-05,
        "meta_inclination": 0.0596,
        "meta_ra_of_asc_node": 100.0826,
        "meta_arg_of_pericenter": 37.7062,
        "meta_mean_anomaly": 290.9521,
        "meta_ephemeris_type": 0,
        "meta_classification_type": "U",
        "meta_norad_cat_id": 54259,
        "meta_element_set_no": 999,
        "meta_rev_at_epoch": 1116,
        "meta_bstar": 0,
        "meta_mean_motion_dot": 8.5e-07,
        "meta_mean_motion_ddot": 0,
        "tle_line1": "1 54259U 22157A   25347.93308625  .00000085  00000+0  00000+0 0  9990",
        "tle_line2": "2 54259   0.0596 100.0826 0000600  37.7062 290.9521  1.00270124 11169"
      },
      "geometry": {
        "type": "Point",
        "coordinates": [
          16.8808347125019,
          -0.040878507241080275
        ]
      }
    },
    {
      "type": "Feature",
      "properties": {
        "norad_id": 59346,
        "name": "EUTELSAT 36D",
        "group": "eutelsat",
        "lat": 0.03518702075605629,
        "lon": 42.75128564622893,
        "alt_km": 35785.15145313635,
        "timestamp": "2025-12-14T18:52:55.169747+00:00",
        "meta_object_name": "EUTELSAT 36D",
        "meta_object_id": "2024-059A",
        "meta_epoch": "2025-12-13T22:10:47.896608",
        "meta_mean_motion": 1.00269756,
        "meta_eccentricity": 4.273e-05,
        "meta_inclination": 0.0208,
        "meta_ra_of_asc_node": 350.254,
        "meta_arg_of_pericenter": 12.5977,
        "meta_mean_anomaly": 88.5315,
        "meta_ephemeris_type": 0,
        "meta_classification_type": "U",
        "meta_norad_cat_id": 59346,
        "meta_element_set_no": 999,
        "meta_rev_at_epoch": 629,
        "meta_bstar": 0,
        "meta_mean_motion_dot": 0,
        "meta_mean_motion_ddot": 0,
        "tle_line1": "1 59346U 24059A   25347.92416547  .00000000  00000+0  00000+0 0  9994",
        "tle_line2": "2 59346   0.0208 350.2540 0000427  12.5977  88.5315  1.00269756  6295"
      },
      "geometry": {
        "type": "Point",
        "coordinates": [
          42.75128564622893,
          0.03518702075605629
        ]
      }
    }
  ]
}